#dP2023 12  4  0  0  0.00000000      96 __u+U IGS20 EXT  IAC
## 2291  86400.00000000   900.00000000 60282 0.0000000000000
+  119   C06C07C08C09C10C11C12C13C14C16C19C20C21C22C23C24C25
+        C26C27C28C29C30C32C33C34C35C36C37C38C39C40C41C42C43
+        C44C45C46E02E03E04E05E07E08E09E10E11E12E13E15E18E19
+        E21E24E25E26E27E30E31E33E34E36G01G02G03G04G05G06G07
+        G08G09G10G11G12G13G14G15G16G17G18G19G20G21G22G23G24
+        G25G26G27G28G29G30G31G32J02J03J04R01R02R03R04R05R07
+        R08R09R11R12R13R14R15R16R17R18R19R20R21R22R24R25R26
++        10 11 13 11 12  7 10 10  7 10  8  8 10 10  9  8  9
++         8  8  8  8  9  9  9  8  8  9  8  8 10 11  9  8  8
++         7  7  9  7  7  6  7  8  6  7  7  7  7  7  7  7  8
++         7  7  6  6  9  8  6  7  7  7  6  7  7  7  7  6  6
++         7  8  7  6  7  7  8  7  8  6  7  6  6  7  7  8  7
++         7  8  6  7  8  6  7  8  8  9  8  7  7  8  6  8  8
++         9  6  9  7 10  7  8  8  6  6  6  8  8  7  9  9  7
%c M  cc GPS ccc cccc cccc cccc cccc ccccc ccccc ccccc ccccc
%c cc cc ccc ccc cccc cccc cccc cccc ccccc ccccc ccccc ccccc
%f  0.0000000  0.000000000  0.00000000000  0.000000000000000
%f  0.0000000  0.000000000  0.00000000000  0.000000000000000
%i    0    0    0    0      0      0      0      0         0
%i    0    0    0    0      0      0      0      0         0
/* IAC                                ULTRA-RAPID PREDICTION
/* S/V CLOCKS ARE ALIGNED TO GNSS TIME                      
/* G:C1WC2W R:C1PC2P E:C1XC5X C:C2IC6I J:C1CC2S             
/* PCV:IGS20_2287 OL/AL:FES2004  NONE     YN ORB:CoN CLK:CoN
*  2023 12 04 22 15  0.00000000
PC06 -17219.796945  37469.606854  -9447.987586     54.437041
PC07  -2428.594130  34110.670553 -24476.588762   -423.102144
PC08 -10673.519664  19441.269623  35831.922506    200.860137
PC09 -10529.275558  36399.780396 -18687.595767   -175.031205
PC10   5777.787006  36915.817084 -18702.591462    -41.292825
PC11  -8448.412765 -17079.597880 -20316.805863    289.742375
PC12   4582.994768 -26878.197406  -5911.627636    836.473712
PC13  -3735.717671  21739.868010  36079.201428    391.540353
PC14 -19239.102189 -20252.189011     55.619821  -1136.801079
PC16 -19159.662045  37084.115410  -6860.895983   -209.285361
PC19  22092.117841  14350.910656  -9164.147446   -957.700054
PC20  14411.574713  22672.852798   7512.586022     58.196333
PC21   2735.824327 -17995.132809 -21148.224631   -969.041965
PC22  17499.819193  -2733.187751 -21567.757383   -199.287148
PC23 -26859.179433   7419.789402  -1412.258674   -809.336887
PC24  -5713.280072 -15383.653512  22549.837217    661.013375
PC25 -23490.590846  -4503.989930  14342.735241    270.669677
PC26  13851.160727 -16696.666727  17553.564761   -215.606174
PC27  -9900.164492  25973.120443  -2548.504473    237.555706
PC28 -16807.764690  14627.948339 -16790.345328    179.572902
PC29  14464.124583   7480.699829  22661.595652    210.184959
PC30   3207.571838  24305.064407  13346.918315     -9.710859
PC32  -2738.470212  17940.633728  21206.552208   -539.852549
PC33 -22196.004913 -14284.218395   9072.347248   -942.462915
PC34  -4277.364308 -23452.218104 -14497.859894    317.808968
PC35  16292.355744 -15257.012532  16720.052257    488.058420
PC36  22882.726340   5609.267080 -14952.815076   -106.478993
PC37 -14790.296934  16250.526478 -17180.878025   -911.542622
PC38 -19097.206052  20220.982380  31677.864446    121.948375
PC39 -19357.306323  37518.915059  -2692.938574     -5.944199
PC40  -5944.077428  30469.823586 -28395.972713    -46.582299
PC41 -17987.693104   2086.554758  21282.513978   -872.438435
PC42 -13367.881447 -22829.829257  -8873.935707   -486.734910
PC43 -14213.106992  -8504.743065 -22461.614304     50.966192
PC44   9003.833192 -26258.379129   2692.375662    312.927538
PC45  26774.339667  -7686.541902   1915.019078    -52.121190
PC46   6964.940792  14908.743329 -22552.114113   -104.960297
PE02  13824.370279 -11993.533026  23263.839456     83.930622
PE03   8294.475119 -22440.726066 -17443.454746    -77.919223
PE04   5108.790460  29156.072560    358.039761   -272.627449
PE05  16760.610126  -2762.897874 -24244.253409   4697.337085
PE07 -15353.647228 -19079.603434  16626.990775    -91.318178
PE08  -4738.979498 -29206.992118   -941.940961   -187.178783
PE09  15232.659796  19189.774397 -16608.987010   -251.324510
PE10   6360.470930  15296.089067  24530.608153   -583.882560
PE11  15732.288482   7055.683765  24056.432772   3250.125702
PE12  -2942.004165  20467.388437  21189.672915   -804.945267
PE13 -15133.637494  -7591.411063 -24269.475257    -19.642878
PE15   3464.995442 -20615.467673 -20942.894820    -73.004736
PE18 -11303.873250 -28700.485612  -9610.600774     57.578387
PE19  -9709.917054  20483.958096  19037.810731  -1080.955834
PE21 -27043.277625   -980.782622 -11987.509871   -567.296382
PE24  24852.569471  14390.228429  -7248.475036   -467.998951
PE25  27183.958150   1269.937449  11661.718424     -2.447596
PE26 -24726.196198  10132.883119 -12714.485942    300.208787
PE27 -25146.521836 -14041.652571   6797.036577   -216.158078
PE30  -8029.431802 -18719.397954  21460.095880   -715.614422
PE31   8473.742865  18673.990620 -21344.427581    -11.135381
PE33 -20087.809638  21187.353963   4851.543934      3.600800
PE34  19719.660326 -21411.337482  -5406.254394    -81.573030
PE36  24587.527810  -9647.818815  13368.660967   -153.190913
PG01  11078.664566 -20227.684472 -13218.249058    163.578238
PG02  15273.720168 -20732.815524  -5532.166491   -520.054387
PG03   3666.175997 -14402.722239 -22159.983521     31.304642
PG04   1937.404242 -25161.146407  -8055.948284    230.820438
PG05 -16910.042905   8218.446157  18620.874794   -152.887147
PG06 -19939.908215   1652.792598 -17449.421671    487.625459
PG07  -5427.395577 -15409.833595  21343.750853     -3.604888
PG08   6744.558913 -20303.541207  15385.579605   -155.348992
PG09  -7131.519790 -25414.835737   2568.365149     16.864678
PG10  24046.650255  11165.263759   3679.984572    -64.021306
PG11 -22941.053759  10453.018077  -8252.735632   -487.656847
PG12  -5754.997873  14152.655140 -22007.517166   -454.026103
PG13 -13196.806258  11110.641369  19929.921841    602.269683
PG14 -21955.061031 -13605.091448   6600.937709    261.818504
PG15  -4414.040138  21122.529398  14852.964994    103.691630
PG16  21793.280253  -1547.650630  15095.692297   -410.211590
PG17 -12456.841916 -17561.287030 -15026.203275    722.457013
PG18   6121.026768  14030.960802  21698.733175   -497.525599
PG19 -14734.661506  -8980.961875 -20476.892047    408.000327
PG20 -24899.470557   2088.159191   8786.288951    398.289894
PG21  17058.150857 -19498.639520  -2175.643428    142.473310
PG22 -24029.555455 -10914.509117   -251.320536     71.888540
PG23  15980.695637  15543.447943  14595.154468    110.291267
PG24 -13685.697343  21497.720610  -7058.114003   -386.284171
PG25   8086.209530  17095.857361 -19082.659885    480.175627
PG26  25865.459161   2241.087402   6318.687802    211.805719
PG27  13695.723176  -7076.732773  21318.542594    -78.801912
PG28  19006.353447    238.631869 -18572.391148    -61.821260
PG29   4250.442556  26067.196630   2181.774385   -609.975320
PG30 -14845.218169  -7596.683254  20838.828622   -461.093499
PG31  22628.418096  -6719.465215 -12780.071974   -226.328684
PG32  14890.559154  13575.983914 -17222.717444   -593.017848
PJ02 -27380.292403  15541.884554 -23394.983530     -0.412238
PJ03 -26063.634671  32903.275870   -151.093041    -10.667721
PJ04 -25885.338170  26270.052084  26346.407056     73.532427
PR01  16037.519673  19217.054972  -4908.581263     71.372996
PR02  15014.482098   6675.464734 -19497.989900    -22.304885
PR03   6002.483640 -10228.117253 -22533.079548     90.297155
PR04  -6087.305158 -20961.029084 -13158.118435    213.854857
PR05 -14779.919821 -20500.086469   3346.681615    123.306019
PR07  -5384.587427  11064.991043  22388.132068     70.620637
PR08   6289.227439  21052.013781  13048.712164    -73.544094
PR09 -25466.497072   1257.053292   1657.052895    156.912499
PR11  -3304.141200  11033.570500 -22753.423072   -218.351095
PR12  17000.741008   7421.765561 -17497.177342     34.114637
PR13  25206.083308    163.946606  -3949.837269    -41.983140
PR14  19012.255374  -8415.800722  14773.566427     25.690474
PR15   1775.767728 -11129.872983  22897.319445     84.236555
PR16 -16782.477662  -7329.066633  17776.638662     21.235587
PR17  14127.402113 -19975.456923   7308.216471     40.690363
PR18   7286.604178 -22578.496345  -9284.969185    115.238936
PR19  -1910.906486 -15060.883828 -20492.641052   -257.087746
PR20 -13514.961746   4649.878163 -21121.913754   -104.619278
PR21 -14089.975809  20158.625683  -6701.590318    -58.480187
PR22  -7170.451281  22266.993387  10215.221880     96.711722
PR24  13880.014354  -5516.737842  20707.542886    -34.671112
PR25 -15013.463283  19310.160860  -7188.497849     -1.916342
PR26   5965.553061  20755.945187  13577.544954    -13.758134
EOF
